     3.03           N: GNSS NAV DATA    M: Mixed            RINEX VERSION / TYPE
RTKCONV demo5 b34d                      20231019 024839 UTC PGM / RUN BY / DATE 
format: RTCM 3                                              COMMENT             
log: F:\rosbag_1019\base\base_pad.bin                       COMMENT             
                                                            END OF HEADER       
E12 2023 10 19 02 30 00 -.742122996598D-03 -.149640300151D-10  .000000000000D+00
      .790000000000D+02 -.136468750000D+03  .272368488098D-08  .300069530342D+01
     -.640004873276D-05  .113043468446D-03  .192411243916D-05  .544061435127D+04
      .354600000000D+06 -.558793544769D-07 -.263488706105D+00 -.558793544769D-08
      .997072090043D+00  .313906250000D+03  .234475640772D+00 -.566237871794D-08
     -.370729728096D-09  .517000000000D+03  .228400000000D+04  .000000000000D+00
      .312000000000D+01  .000000000000D+00 -.102445483208D-07 -.102445483208D-07
      .355267100000D+06  .000000000000D+00
E04 2023 10 19 02 30 00 -.237487780396D-03 -.866862137627D-11  .000000000000D+00
      .790000000000D+02 -.175937500000D+02  .333906765700D-08 -.139228668132D+01
     -.733882188797D-06  .473523978144D-04  .620819628239D-05  .544061494255D+04
      .354600000000D+06 -.745058059692D-08  .182967515274D+01 -.186264514923D-07
      .959146918993D+00  .207468750000D+03  .251907249904D+01 -.551344394278D-08
      .373229832235D-09  .517000000000D+03  .228400000000D+04  .000000000000D+00
      .312000000000D+01  .000000000000D+00 -.186264514923D-08 -.232830643654D-08
      .355268300000D+06  .000000000000D+00
E11 2023 10 19 02 30 00  .310798210558D-02  .501643171447D-10 -.346944695195D-17
      .790000000000D+02 -.128750000000D+03  .263118102782D-08  .101852133933D+01
     -.621750950813D-05  .222177011892D-03  .231899321079D-05  .544060655594D+04
      .354600000000D+06  .353902578354D-07 -.263488297951D+00  .726431608200D-07
      .997060592970D+00  .308937500000D+03  .141069378076D+01 -.555415992448D-08
     -.349300264044D-09  .517000000000D+03  .228400000000D+04  .000000000000D+00
      .312000000000D+01  .000000000000D+00 -.132713466883D-07 -.146683305502D-07
      .355269400000D+06  .000000000000D+00
E11 2023 10 19 02 30 00  .310798379360D-02  .501643171447D-10 -.346944695195D-17
      .790000000000D+02 -.128750000000D+03  .263118102782D-08  .101852133933D+01
     -.621750950813D-05  .222177011892D-03  .231899321079D-05  .544060655594D+04
      .354600000000D+06  .353902578354D-07 -.263488297951D+00  .726431608200D-07
      .997060592970D+00  .308937500000D+03  .141069378076D+01 -.555415992448D-08
     -.349300264044D-09  .258000000000D+03  .228400000000D+04  .000000000000D+00
      .312000000000D+01  .000000000000D+00 -.132713466883D-07  .000000000000D+00
      .355340400000D+06  .000000000000D+00
E21 2023 10 19 02 30 00 -.559245352633D-03 -.227373675443D-11  .000000000000D+00
      .790000000000D+02  .159468750000D+03  .282654630843D-08  .150068007205D+01
      .726059079170D-05  .135474489070D-03  .100377947092D-04  .544062633896D+04
      .354600000000D+06  .186264514923D-07 -.235532906004D+01 -.577419996262D-07
      .968198737775D+00  .131781250000D+03 -.900315223709D+00 -.530129224867D-08
     -.971469037013D-10  .258000000000D+03  .228400000000D+04  .000000000000D+00
      .312000000000D+01  .000000000000D+00  .325962901115D-08  .000000000000D+00
      .355340800000D+06  .000000000000D+00
E09 2023 10 19 02 30 00 -.196406443138D-03 -.135571553983D-10  .000000000000D+00
      .790000000000D+02 -.185937500000D+02  .319549024785D-08 -.345815159789D+00
     -.746920704842D-06  .246123760007D-03  .627897679806D-05  .544060214996D+04
      .354600000000D+06  .260770320892D-07  .182855874729D+01  .409781932831D-07
      .965028551873D+00  .206500000000D+03  .704288010525D+00 -.544986986610D-08
      .398945189097D-09  .258000000000D+03  .228400000000D+04  .000000000000D+00
      .312000000000D+01  .000000000000D+00  .256113708019D-08  .000000000000D+00
      .355341900000D+06  .000000000000D+00
E19 2023 10 19 02 30 00 -.139614811633D-02  .788276111052D-10  .000000000000D+00
      .790000000000D+02 -.133437500000D+02  .329763735983D-08 -.901755152030D+00
     -.648200511932D-06  .999891199172D-04  .606849789619D-05  .544060825539D+04
      .354600000000D+06  .633299350739D-07  .183367151285D+01  .167638063431D-07
      .964719446060D+00  .211093750000D+03  .291129702620D+01 -.552701593668D-08
      .366443835285D-09  .258000000000D+03  .228400000000D+04  .000000000000D+00
      .312000000000D+01  .000000000000D+00 -.302679836750D-08  .000000000000D+00
      .355342200000D+06  .000000000000D+00
E04 2023 10 19 02 30 00 -.237487198319D-03 -.868283223099D-11  .000000000000D+00
      .790000000000D+02 -.175937500000D+02  .333906765700D-08 -.139228668132D+01
     -.733882188797D-06  .473523978144D-04  .620819628239D-05  .544061494255D+04
      .354600000000D+06 -.745058059692D-08  .182967515274D+01 -.186264514923D-07
      .959146918993D+00  .207468750000D+03  .251907249904D+01 -.551344394278D-08
      .373229832235D-09  .258000000000D+03  .228400000000D+04  .000000000000D+00
      .312000000000D+01  .000000000000D+00 -.186264514923D-08  .000000000000D+00
      .355342600000D+06  .000000000000D+00
E12 2023 10 19 02 30 00 -.742122705560D-03 -.149213974510D-10  .000000000000D+00
      .790000000000D+02 -.136468750000D+03  .272368488098D-08  .300069530342D+01
     -.640004873276D-05  .113043468446D-03  .192411243916D-05  .544061435127D+04
      .354600000000D+06 -.558793544769D-07 -.263488706105D+00 -.558793544769D-08
      .997072090043D+00  .313906250000D+03  .234475640772D+00 -.566237871794D-08
     -.370729728096D-09  .258000000000D+03  .228400000000D+04  .000000000000D+00
      .312000000000D+01  .000000000000D+00 -.102445483208D-07  .000000000000D+00
      .355342900000D+06  .000000000000D+00
